[{"OBJECT_NAME":"ONEWEB-0634","OBJECT_ID":"2023-043AF","EPOCH":"2026-03-09T23:17:00.385440","MEAN_MOTION":13.15547737,"ECCENTRICITY":0.00018498,"INCLINATION":87.8937,"RA_OF_ASC_NODE":279.0418,"ARG_OF_PERICENTER":81.7041,"MEAN_ANOMALY":278.4299,"EPHEMERIS_TYPE":0,"CLASSIFICATION_TYPE":"U","NORAD_CAT_ID":56075,"ELEMENT_SET_NO":999,"REV_AT_EPOCH":14335,"BSTAR":0.00013013715,"MEAN_MOTION_DOT":6.2e-7,"MEAN_MOTION_DDOT":0},{"OBJECT_NAME":"CZ-3C DEB","OBJECT_ID":"2012-008AM","EPOCH":"2026-03-09T07:26:37.865472","MEAN_MOTION":2.67043291,"ECCENTRICITY":0.6900772,"INCLINATION":19.9275,"RA_OF_ASC_NODE":72.1288,"ARG_OF_PERICENTER":67.5197,"MEAN_ANOMALY":349.1153,"EPHEMERIS_TYPE":0,"CLASSIFICATION_TYPE":"U","NORAD_CAT_ID":42477,"ELEMENT_SET_NO":999,"REV_AT_EPOCH":10325,"BSTAR":0.0037714336,"MEAN_MOTION_DOT":1.237e-5,"MEAN_MOTION_DDOT":0}]
